SALSAT                  
1 46495U 20068K   24133.42586615  .00015171  00000+0  87106-3 0  9993
2 46495  97.8148  91.8406 0016041  77.9810 282.3216 15.12519331198901
UVSQ-SAT                
1 47438U 21006AB  24133.44253068  .00076046  00000+0  16575-2 0  9998
2 47438  97.3291 193.5381 0004792 347.4591  12.6537 15.43970921183214
LEDSAT                  
1 49069U 21073D   24133.47279089  .00029576  00000+0  12337-2 0  9996
2 49069  97.4388 204.8730 0020298  53.5111 306.7992 15.23440312151019
XW-3 (CAS-9)            
1 50466U 21131B   24133.54049660  .00003127  00000+0  10151-2 0  9998
2 50466  98.5264 218.7786 0003469 217.8111 142.2834 14.39575755124876
TEVEL-3                 
1 50988U 22002E   24133.46117170  .00129616  00000+0  17651-2 0  9992
2 50988  97.3799 207.7902 0004567 163.6791 196.4612 15.57090980129474
TEVEL-8                 
1 50989U 22002F   24133.56351245  .00138762  00000+0  18962-2 0  9995
2 50989  97.3824 207.9865 0004596 165.2274 194.9116 15.56965531129485
TEVEL-5                 
1 50998U 22002Q   24133.57616568  .00161894  00000+0  18678-2 0  9994
2 50998  97.3791 209.0854 0004201 165.1745 194.9636 15.61383302129577
TEVEL-6                 
1 50999U 22002R   24133.45324214  .00178844  00000+0  20754-2 0  9997
2 50999  97.3784 208.9266 0004195 165.0858 195.0523 15.61175365129554
TEVEL-1                 
1 51013U 22002AF  24133.48814167  .00133809  00000+0  18330-2 0  9998
2 51013  97.3788 207.6841 0004367 160.5695 199.5727 15.56917609129476
TEVEL-7                 
1 51062U 22002CG  24133.55306107  .00139685  00000+0  18982-2 0  9991
2 51062  97.3806 207.9505 0004324 160.5254 199.6167 15.57114063129489
TEVEL-4                 
1 51063U 22002CH  24133.45970185  .00123848  00000+0  17137-2 0  9999
2 51063  97.3811 207.7620 0004449 159.1315 201.0123 15.56680297129466
TEVEL-2                 
1 51069U 22002CP  24133.45928719  .00143741  00000+0  19505-2 0  9996
2 51069  97.3796 207.7559 0004429 162.7998 197.3408 15.57138395129472
GREENCUBE               
1 53106U 22080B   24129.12370289 -.00000003  00000+0  00000+0 0  9999
2 53106  70.1412 206.4364 0007827 115.6229 244.5240  6.42557310 42692
KUZBASS-300 (RS34S)     
1 53375U 22096F   24133.58777251  .01169474  79105-3  16358-2 0  9999
2 53375  97.3771  54.6644 0007549 155.4090 204.7552 16.06006499 98932
MIET-AIS (RS28S)        
1 53377U 22096H   24133.08798871  .00403176  00000+0  18865-2 0  9995
2 53377  97.3861  52.6525 0006716 122.8533 237.3383 15.82180038 98754
KAI-1 (RS26S)           
1 53378U 22096J   24133.56389430  .00106847  00000+0  11732-2 0  9997
2 53378  97.3969  50.6256 0005209 106.8118 253.3712 15.62844450 98656
ISOI (RS19S)            
1 53381U 22096M   24133.33383371  .00365550  00000+0  14794-2 0  9993
2 53381  97.3885  53.8554 0006308 126.1672 234.0182 15.85367667 98858
SIREN (RS30S)           
1 53384U 22096Q   24133.03162187  .00255414  00000+0  18697-2 0  9996
2 53384  97.3910  51.8582 0004308 120.7097 239.4591 15.72428219 98690
CAS-5A (FO-118)         
1 54684U 22167C   24133.60182440  .00034443  00000+0  12616-2 0  9998
2 54684  97.6023 277.6531 0010176 265.3994  94.6082 15.27890980 78867
STRATOSAT-TK 1 (RS52S)  
1 57167U 23091B   24133.54517156  .00020503  00000+0  12225-2 0  9991
2 57167  97.6141 186.7393 0014573 236.1310 123.8533 15.11103662 48170
UMKA 1 (RS40S)          
1 57172U 23091G   24133.55087412  .00008875  00000+0  59440-3 0  9994
2 57172  97.6144 185.9639 0015719 239.5632 120.4043 15.07036734 48124
CUBESX-HSE 3 (RS42S)    
1 57178U 23091N   24133.60280756  .00011987  00000+0  77639-3 0  9990
2 57178  97.6179 186.3551 0016307 232.4094 127.5654 15.08182263 48142
MONITOR-4 (RS57S)       
1 57182U 23091S   24133.57987932  .00010576  00000+0  69327-3 0  9999
2 57182  97.6156 186.1835 0016867 234.5727 125.3926 15.07763534 48134
MONITOR-2 (RS39S)       
1 57184U 23091U   24133.58437117  .00008771  00000+0  58516-3 0  9999
2 57184  97.6164 186.3521 0013272 227.2806 132.7305 15.07210803 48143
SVYATOBOR 1 (RS60S)     
1 57187U 23091X   24133.57470208  .00010828  00000+0  69548-3 0  9992
2 57187  97.6165 186.6770 0013055 224.3263 135.6921 15.08556267 48166
VIZARD-METEO (RS38S)    
1 57189U 23091Z   24133.56124422  .00013427  00000+0  83296-3 0  9991
2 57189  97.6165 186.9710 0011999 221.1955 138.8369 15.09785028 48186
NANOZOND 1 (RS49S)      
1 57190U 23091AA  24133.48612328  .00019007  00000+0  11093-2 0  9996
2 57190  97.6142 187.2702 0010368 224.2568 135.7834 15.11940059 48207
POLYTECH-UNIVERSE 3 (R*)
1 57191U 23091AB  24133.58713860  .00008451  00000+0  56421-3 0  9997
2 57191  97.6132 186.0594 0018313 246.6716 113.2585 15.07131666 48131
UTMN 2 (RS27S)          
1 57203U 23091AP  24133.60765663  .00011758  00000+0  73851-3 0  9992
2 57203  97.6166 186.9074 0012188 220.3497 139.6828 15.09365168 48188
ARCCUBE 1 (RS25S)       
1 57205U 23091AR  24133.55365962  .00022718  00000+0  12915-2 0  9997
2 57205  97.6112 187.4033 0010525 225.4903 134.5469 15.12846509 48220
KUZGTU 1 (RS47S)        
1 57217U 23091AV  24133.60835707  .00011466  00000+0  74527-3 0  9991
2 57217  97.6154 186.2452 0016207 234.0079 125.9647 15.08065475 48147
HADES-D (SO-121)        
1 58567U 23174CY  24133.16933529  .00081301  00000+0  31397-2 0  9996
2 58567  97.4555 208.8820 0010699 356.4868   3.6293 15.25884956 28287
